#dP2021  1 16  0  0  0.00000000     289 ORBIT ITRF  BHN ESOC                    
## 2140 518400.00000000   300.00000000 59230 0.0000000000000                    
+  108   G13G28G21G22G07G05G20G31G17G15G16G29G12G19G02G25G01                    
+        G30G24G27G06G09G03G32G26G08G10G04G18G23G14R09R11R20                    
+        R19R13R01R22R16R08R03R07R02R17R14R18R21R05R15R12R04                    
+        R24E11E12E19E18E14E26E24E30E08E09E01E02E07E03E04E05                    
+        E21E25E27E31E36E13E15E33C11C12C14C19C20C27C28C22C21                    
+        C29C30C23C24C26C25C32C33C35C34C36C37C06C07C08C09C10                    
+        C13C16C40J01J02J03  0  0  0  0  0  0  0  0  0  0  0                    
++         4  5  4  5  4  4  5  4  5  4  5  5  5  5  5  4  4                    
++         5  4  4  4  4  4  5  4  4  4  4  4  4  4  5  4  6                    
++         6  5  6  5  5  5  5  5  5  5  4  5  5  4  6  5  6                    
++         5  4  4  4  4  5  4  4  5  4  4  5  4  4  4  5  4                    
++         5  5  5  5  4  4  5  4  6  6  6  5  5  5  6  5  6                    
++         5  5  5  6  6  6  6  6  5  6  5  6  6  6  7  3  6                    
++         7  6  7  7  6  6  0  0  0  0  0  0  0  0  0  0  0                    
%c M  cc GPS ccc cccc cccc cccc cccc ccccc ccccc ccccc ccccc                    
%c cc cc ccc ccc cccc cccc cccc cccc ccccc ccccc ccccc ccccc                    
%f  0.0000000  0.000000000  0.00000000000  0.000000000000000                    
%f  0.0000000  0.000000000  0.00000000000  0.000000000000000                    
%i    0    0    0    0      0      0      0      0         0                    
%i    0    0    0    0      0      0      0      0         0                    
/* CCCCCCCCCCCCCCCCCCCCCCCCCCCCCCCCCCCCCCCCCCCCCCCCCCCCCCCCCCCCCCCCCCCCCCCCCCCCC
/* CCCCCCCCCCCCCCCCCCCCCCCCCCCCCCCCCCCCCCCCCCCCCCCCCCCCCCCCCCCCCCCCCCCCCCCCCCCCC
/* CCCCCCCCCCCCCCCCCCCCCCCCCCCCCCCCCCCCCCCCCCCCCCCCCCCCCCCCCCCCCCCCCCCCCCCCCCCCC
/* PCV:IGS        OL/AL:EOT11A   NONE     YN ORB:CoN CLK:CoN                    
*  2021  1 16 22 35  0.00000000                                                 
PG13 -13700.595540   7352.511725  21381.383941     86.674113                    
PG28 -21416.085295 -13309.215079   8598.516105    628.769346                    
PG21  17333.582682 -19810.744732   1392.229286     87.418772                    
PG22  14354.527213 -11958.407981 -18620.319626   -696.966789                    
PG07  -1123.854269 -18552.788466  19117.769837     24.222596                    
PG05 -23062.219534   4419.589209  12437.054327    -31.172368                    
PG20  12356.992417  14678.359584  18414.616166    525.134881                    
PG31  18592.910794    459.851672 -19207.364749    -94.317604                    
PG17 -13624.644952 -17986.881625 -13581.684864    381.128064                    
PG15  -5827.238423  18926.586960  17175.139940   -175.855510                    
PG16  23860.416983   -601.748853  11899.425213   -266.111004                    
PG29   4132.495428  26085.837218  -2632.668431   -277.108497                    
PG12 -10120.409915  12148.223938 -21558.141219     11.993674                    
PG19 -15191.561227 -10740.919293 -19269.751562    -50.998457                    
PG02 -20225.557230  11576.919374 -12089.079697   -566.743146                    
PG25   5490.904718  16084.800022 -20728.508896     61.186552                    
PG01  12812.609640 -21569.628393  -8418.988483    778.983462                    
PG30 -11332.823378 -10941.727042  21430.885503   -370.024009                    
PG24 -14602.189618  21710.892134  -3322.165515      3.598787                    
PG27  14231.500856  -4040.372356  21907.166556    -57.425360                    
PG06 -16460.131982  -2581.064060 -20632.117908     -4.538565                    
PG09  -6758.087710 -25601.043254  -1983.572978   -313.465950                    
PG03   5408.138277 -14181.622154 -21871.084362    -58.108775                    
PG32  15482.583115  16407.029977 -14058.624914     14.646355                    
PG26  26337.444845   4296.118124    998.916837     30.960548                    
PG08   7764.691796 -17316.226432  18468.016901     -6.857114                    
PG10  21956.689835  11841.561369   9601.222045    -40.721855                    
PG04   3062.671320 -23068.611170 -12751.209959   -173.255595                    
PG18   2735.856855  17076.205756  20138.162121    341.731008                    
PG23  12981.554111  15136.138505  17537.755832    116.312911                    
PG14 -20036.333708 -13604.715991  10903.808060     86.471722                    
PR09  -9028.339936  -8777.377115  22206.715449     18.951511                    
PR11 -23222.935575   9267.184942  -5057.043322      4.459984                    
PR20  -1050.942367 -20310.694320 -15352.743665   -431.301586                    
PR19   8760.301311 -23670.405291   3712.124252   -128.203903                    
PR13   8467.377453   8698.159768 -22454.206116    -49.428018                    
PR01   -747.182764  13614.460638  21552.992424     73.570154                    
PR22 -11999.425795  14725.579864 -17083.657433    -92.880519                    
PR16   9196.121247 -12922.290500  19997.016658    -10.298065                    
PR08 -12587.002346   2318.213788  22110.284646    -56.902766                    
PR03  19602.804669  11898.250033 -11194.294255     29.268244                    
PR07 -19495.311301 -11374.851988  11869.538259    -42.204232                    
PR02  15378.058684  19462.351370   6123.605985    463.138138                    
PR17   9869.456458   3967.634481  23198.545753    391.845509                    
PR14  22622.193321   -420.745928 -11763.237798     59.913656                    
PR18  12033.341812 -13612.039667  17900.026488     63.380488                    
PR21 -10097.953270  -2816.656666 -23246.843192   -180.906006                    
PR05  -1418.655187 -15009.009532 -20562.281437     64.852346                    
PR15  23212.564782  -9087.751654   5444.893847    105.839707                    
PR12 -10239.546406  12562.735568 -19664.646478    197.219604                    
PR04  12533.642370  -2157.262075 -22090.905001     70.254235                    
PR24   2014.350223  19942.937625  15792.292194     28.030744                    
PE11  -8274.389515 -16218.936257 -23332.676587   6459.602637                    
PE12   7774.737476 -26669.630389 -10188.818387   5403.285204                    
PE19  13192.822570 -10969.314594 -24121.760658    180.155438                    
PE18  12606.833946 -10171.475661  17602.092255  -1417.729827                    
PE14 -20261.889480   3664.553063 -24992.030300  -1297.166607                    
PE26  19248.164604  -3915.772485  22156.844589   2257.274398                    
PE24 -18893.283234 -12951.283772  18718.577284   -693.306583                    
PE30  -2832.452594  16449.276014 -24452.203439   3257.315578                    
PE08   4023.761491  26057.827284  13439.056597   6061.004219                    
PE09 -17295.219561 -23537.556817   4837.756071   5796.782304                    
PE01  22623.318228 -10407.277288  16012.286598  -1026.246850                    
PE02 -22509.153228  10470.982131 -16104.026878    191.546836                    
PE07  17122.325607  23682.445098  -4684.615717   -488.588210                    
PE03 -11807.981974  13232.591124  23690.878197   -388.111658                    
PE04  -3567.926661 -26033.937892 -13625.131539   -690.284628                    
PE05 -20478.617667  -7513.531779  20004.583203   -312.334391                    
PE21  29552.945213   1226.930312  -1294.011098   -643.241185                    
PE25 -29526.859430  -1344.848641   1470.377732   -524.472722                    
PE27  19538.996682  12563.650496 -18352.602532     49.670928                    
PE31   1920.534273 -16456.701461  24535.555490   -477.425103                    
PE36 -18885.316180   3373.109577 -22530.672228    453.311187                    
PE13   7972.476001  16503.483028  23255.912726    410.382231                    
PE15  -7650.756025  26687.926477  10283.807860    833.934554                    
PE33  18772.902734 -21145.957494   8756.261110   -464.923281                    
PC11 -13504.000261  16180.621074 -18200.399426   -891.046872                    
PC12 -14942.040104  -4152.663374 -23158.501798    734.313768                    
PC14 -17363.070702   5991.160164  21045.461827    -81.034443                    
PC19   8703.045249 -13269.208027 -22933.612761    693.399782                    
PC20  22330.982414   1067.634632 -16675.776316   -909.664998                    
PC27  12578.772802  14809.345261  20023.871594    467.515705                    
PC28   1899.094119  27145.808353   6179.658579   -120.959969                    
PC22 -10343.442573 -20357.934356 -16056.822704   -847.060736                    
PC21 -23227.638850 -15481.572875    158.373954   -796.017996                    
PC29   8976.470966 -23907.750737  11245.601298    339.465080                    
PC30  15705.396052  -6223.704527  22208.606856    432.104903                    
PC23    183.045026  17260.716409 -21925.145195   -881.026356                    
PC24 -26123.996577   7400.083596   6357.279466   -743.092376                    
PC26 -19137.221146  -5825.688858  19432.052321    961.904771                    
PC25 -17620.800544  18236.568280 -11627.989636   -899.895606                    
PC32  23314.369113  15332.907176   -103.144449   -884.102052                    
PC33  -8760.586754  13279.980535  22929.243087   -918.342209                    
PC35  -2665.036040 -27126.458325  -5895.806222   -462.467979                    
PC34 -15688.037986   6981.240944 -22005.114230   -761.630259                    
PC36  18305.248287 -17748.432828  11371.648918   -775.571203                    
PC37  18420.413488   6828.307619 -19815.624712   -860.731734                    
PC06 -10162.676464  37272.490578  17866.540933     10.968510                    
PC07 -12729.661738  23232.119802 -32560.243986   -233.964233                    
PC08 -24435.695001  29778.841628  16777.536138   -903.471127                    
PC09   -356.563699  42336.002728   2399.138693    798.631968                    
PC10   1308.453460  27514.392908 -31623.024631   -102.908321                    
PC13 -10521.874250  30068.877481  27583.429855    100.787334                    
PC16  -8555.108172  37842.077717  16850.055670   -662.269677                    
PC40  -4321.237963  22446.122898 -35400.022260    121.896973                    
PJ01 -26343.925467  21259.761462  30167.633591   -336.755089                    
PJ02 -34807.262902  16283.401906 -12849.886087      0.802596                    
PJ03 -19766.214527  31318.031418 -15375.796218     -0.137278                    
EOF                                                                             
